CCSDS_OMM_VERS = 2.0
CREATION_DATE  = 
ORIGINATOR     = 

OBJECT_NAME    = UNKNOWN
OBJECT_ID      = 
CENTER_NAME    = EARTH
REF_FRAME      = TEME
TIME_SYSTEM    = UTC
MEAN_ELEMENT_THEORY = SGP/SGP4

EPOCH          = 2025-12-17T22:58:53.739552
MEAN_MOTION    = 14.13452957
ECCENTRICITY   = .0236163
INCLINATION    = 98.2022
RA_OF_ASC_NODE = 73.7530
ARG_OF_PERICENTER = 133.5539
MEAN_ANOMALY   = 228.5517

EPHEMERIS_TYPE = 0
CLASSIFICATION_TYPE = U
NORAD_CAT_ID   = 81535
ELEMENT_SET_NO = 999
REV_AT_EPOCH   = 38813
BSTAR          = .50785E-3
MEAN_MOTION_DOT = .1207E-4
MEAN_MOTION_DDOT = 0

CCSDS_OMM_VERS = 2.0
CREATION_DATE  = 
ORIGINATOR     = 

OBJECT_NAME    = UNKNOWN
OBJECT_ID      = 
CENTER_NAME    = EARTH
REF_FRAME      = TEME
TIME_SYSTEM    = UTC
MEAN_ELEMENT_THEORY = SGP/SGP4

EPOCH          = 2025-12-18T10:09:27.967104
MEAN_MOTION    = 12.55874928
ECCENTRICITY   = .0033862
INCLINATION    = 101.9591
RA_OF_ASC_NODE = 213.5550
ARG_OF_PERICENTER = 284.3532
MEAN_ANOMALY   = 255.5858

EPHEMERIS_TYPE = 0
CLASSIFICATION_TYPE = U
NORAD_CAT_ID   = 81536
ELEMENT_SET_NO = 999
REV_AT_EPOCH   = 55252
BSTAR          = .34235E-2
MEAN_MOTION_DOT = .517E-5
MEAN_MOTION_DDOT = 0

CCSDS_OMM_VERS = 2.0
CREATION_DATE  = 
ORIGINATOR     = 

OBJECT_NAME    = UNKNOWN
OBJECT_ID      = 
CENTER_NAME    = EARTH
REF_FRAME      = TEME
TIME_SYSTEM    = UTC
MEAN_ELEMENT_THEORY = SGP/SGP4

EPOCH          = 2025-12-17T00:23:51.812160
MEAN_MOTION    = 14.07095875
ECCENTRICITY   = .0075794
INCLINATION    = 71.0393
RA_OF_ASC_NODE = 100.4008
ARG_OF_PERICENTER = 147.5491
MEAN_ANOMALY   = 213.0322

EPHEMERIS_TYPE = 0
CLASSIFICATION_TYPE = U
NORAD_CAT_ID   = 81537
ELEMENT_SET_NO = 999
REV_AT_EPOCH   = 62106
BSTAR          = .98516E-4
MEAN_MOTION_DOT = .123E-5
MEAN_MOTION_DDOT = 0

CCSDS_OMM_VERS = 2.0
CREATION_DATE  = 
ORIGINATOR     = 

OBJECT_NAME    = UNKNOWN
OBJECT_ID      = 
CENTER_NAME    = EARTH
REF_FRAME      = TEME
TIME_SYSTEM    = UTC
MEAN_ELEMENT_THEORY = SGP/SGP4

EPOCH          = 2025-12-15T12:20:40.257312
MEAN_MOTION    = 13.18182296
ECCENTRICITY   = .0259238
INCLINATION    = 99.0653
RA_OF_ASC_NODE = 275.7867
ARG_OF_PERICENTER = 11.5492
MEAN_ANOMALY   = 349.1424

EPHEMERIS_TYPE = 0
CLASSIFICATION_TYPE = U
NORAD_CAT_ID   = 81552
ELEMENT_SET_NO = 999
REV_AT_EPOCH   = 57961
BSTAR          = .24303E-2
MEAN_MOTION_DOT = .1096E-4
MEAN_MOTION_DDOT = 0

CCSDS_OMM_VERS = 2.0
CREATION_DATE  = 
ORIGINATOR     = 

OBJECT_NAME    = UNKNOWN
OBJECT_ID      = 
CENTER_NAME    = EARTH
REF_FRAME      = TEME
TIME_SYSTEM    = UTC
MEAN_ELEMENT_THEORY = SGP/SGP4

EPOCH          = 2025-12-08T20:42:14.084064
MEAN_MOTION    = 13.31432317
ECCENTRICITY   = .0244736
INCLINATION    = 67.2957
RA_OF_ASC_NODE = 289.3534
ARG_OF_PERICENTER = 87.1848
MEAN_ANOMALY   = 306.7685

EPHEMERIS_TYPE = 0
CLASSIFICATION_TYPE = U
NORAD_CAT_ID   = 81599
ELEMENT_SET_NO = 999
REV_AT_EPOCH   = 58456
BSTAR          = .95917E-3
MEAN_MOTION_DOT = .48E-5
MEAN_MOTION_DDOT = 0

CCSDS_OMM_VERS = 2.0
CREATION_DATE  = 
ORIGINATOR     = 

OBJECT_NAME    = UNKNOWN
OBJECT_ID      = 
CENTER_NAME    = EARTH
REF_FRAME      = TEME
TIME_SYSTEM    = UTC
MEAN_ELEMENT_THEORY = SGP/SGP4

EPOCH          = 2025-12-09T09:20:13.255584
MEAN_MOTION    = 12.81482375
ECCENTRICITY   = .0172851
INCLINATION    = 56.4355
RA_OF_ASC_NODE = 223.0716
ARG_OF_PERICENTER = 126.9912
MEAN_ANOMALY   = 234.6975

EPHEMERIS_TYPE = 0
CLASSIFICATION_TYPE = U
NORAD_CAT_ID   = 81605
ELEMENT_SET_NO = 999
REV_AT_EPOCH   = 18577
BSTAR          = .17371E-1
MEAN_MOTION_DOT = .4201E-4
MEAN_MOTION_DDOT = 0

CCSDS_OMM_VERS = 2.0
CREATION_DATE  = 
ORIGINATOR     = 

OBJECT_NAME    = UNKNOWN
OBJECT_ID      = 
CENTER_NAME    = EARTH
REF_FRAME      = TEME
TIME_SYSTEM    = UTC
MEAN_ELEMENT_THEORY = SGP/SGP4

EPOCH          = 2025-12-17T22:34:43.285728
MEAN_MOTION    = 12.37148733
ECCENTRICITY   = .0333989
INCLINATION    = 101.8227
RA_OF_ASC_NODE = 347.6405
ARG_OF_PERICENTER = 139.7083
MEAN_ANOMALY   = 222.9247

EPHEMERIS_TYPE = 0
CLASSIFICATION_TYPE = U
NORAD_CAT_ID   = 81614
ELEMENT_SET_NO = 999
REV_AT_EPOCH   = 53862
BSTAR          = .27667E-1
MEAN_MOTION_DOT = .4272E-4
MEAN_MOTION_DDOT = 0

CCSDS_OMM_VERS = 2.0
CREATION_DATE  = 
ORIGINATOR     = 

OBJECT_NAME    = UNKNOWN
OBJECT_ID      = 
CENTER_NAME    = EARTH
REF_FRAME      = TEME
TIME_SYSTEM    = UTC
MEAN_ELEMENT_THEORY = SGP/SGP4

EPOCH          = 2025-12-17T14:35:00.283488
MEAN_MOTION    = 13.34109853
ECCENTRICITY   = .0771238
INCLINATION    = 65.8292
RA_OF_ASC_NODE = 50.7856
ARG_OF_PERICENTER = 134.3725
MEAN_ANOMALY   = 232.3206

EPHEMERIS_TYPE = 0
CLASSIFICATION_TYPE = U
NORAD_CAT_ID   = 81615
ELEMENT_SET_NO = 999
REV_AT_EPOCH   = 58351
BSTAR          = .46202E-3
MEAN_MOTION_DOT = .123E-4
MEAN_MOTION_DDOT = 0

CCSDS_OMM_VERS = 2.0
CREATION_DATE  = 
ORIGINATOR     = 

OBJECT_NAME    = UNKNOWN
OBJECT_ID      = 
CENTER_NAME    = EARTH
REF_FRAME      = TEME
TIME_SYSTEM    = UTC
MEAN_ELEMENT_THEORY = SGP/SGP4

EPOCH          = 2025-12-17T23:02:18.051360
MEAN_MOTION    = 12.57537912
ECCENTRICITY   = .004035
INCLINATION    = 101.2578
RA_OF_ASC_NODE = 166.1825
ARG_OF_PERICENTER = 231.8031
MEAN_ANOMALY   = 127.9408

EPHEMERIS_TYPE = 0
CLASSIFICATION_TYPE = U
NORAD_CAT_ID   = 81617
ELEMENT_SET_NO = 999
REV_AT_EPOCH   = 55376
BSTAR          = .20186E-2
MEAN_MOTION_DOT = .297E-5
MEAN_MOTION_DDOT = 0

CCSDS_OMM_VERS = 2.0
CREATION_DATE  = 
ORIGINATOR     = 

OBJECT_NAME    = UNKNOWN
OBJECT_ID      = 
CENTER_NAME    = EARTH
REF_FRAME      = TEME
TIME_SYSTEM    = UTC
MEAN_ELEMENT_THEORY = SGP/SGP4

EPOCH          = 2025-12-14T21:11:55.708224
MEAN_MOTION    = 14.70984305
ECCENTRICITY   = .0071762
INCLINATION    = 66.9760
RA_OF_ASC_NODE = 161.0090
ARG_OF_PERICENTER = 234.8265
MEAN_ANOMALY   = 124.6121

EPHEMERIS_TYPE = 0
CLASSIFICATION_TYPE = U
NORAD_CAT_ID   = 81624
ELEMENT_SET_NO = 999
REV_AT_EPOCH   = 64002
BSTAR          = .86899E-3
MEAN_MOTION_DOT = .5451E-4
MEAN_MOTION_DDOT = 0

CCSDS_OMM_VERS = 2.0
CREATION_DATE  = 
ORIGINATOR     = 

OBJECT_NAME    = UNKNOWN
OBJECT_ID      = 
CENTER_NAME    = EARTH
REF_FRAME      = TEME
TIME_SYSTEM    = UTC
MEAN_ELEMENT_THEORY = SGP/SGP4

EPOCH          = 2025-12-18T02:36:19.253088
MEAN_MOTION    = 12.57227114
ECCENTRICITY   = .0975981
INCLINATION    = 65.8254
RA_OF_ASC_NODE = 120.9344
ARG_OF_PERICENTER = 75.5183
MEAN_ANOMALY   = 295.1961

EPHEMERIS_TYPE = 0
CLASSIFICATION_TYPE = U
NORAD_CAT_ID   = 81640
ELEMENT_SET_NO = 999
REV_AT_EPOCH   = 51075
BSTAR          = .13152E-3
MEAN_MOTION_DOT = .84E-6
MEAN_MOTION_DDOT = 0

CCSDS_OMM_VERS = 2.0
CREATION_DATE  = 
ORIGINATOR     = 

OBJECT_NAME    = UNKNOWN
OBJECT_ID      = 
CENTER_NAME    = EARTH
REF_FRAME      = TEME
TIME_SYSTEM    = UTC
MEAN_ELEMENT_THEORY = SGP/SGP4

EPOCH          = 2025-12-14T04:25:25.319712
MEAN_MOTION    = 13.44378142
ECCENTRICITY   = .0367062
INCLINATION    = 102.1473
RA_OF_ASC_NODE = 236.9694
ARG_OF_PERICENTER = 356.3230
MEAN_ANOMALY   = 157.4260

EPHEMERIS_TYPE = 0
CLASSIFICATION_TYPE = U
NORAD_CAT_ID   = 81652
ELEMENT_SET_NO = 999
REV_AT_EPOCH   = 57884
BSTAR          = .13632E-2
MEAN_MOTION_DOT = .1128E-4
MEAN_MOTION_DDOT = 0

CCSDS_OMM_VERS = 2.0
CREATION_DATE  = 
ORIGINATOR     = 

OBJECT_NAME    = UNKNOWN
OBJECT_ID      = 
CENTER_NAME    = EARTH
REF_FRAME      = TEME
TIME_SYSTEM    = UTC
MEAN_ELEMENT_THEORY = SGP/SGP4

EPOCH          = 2025-12-16T02:43:16.533120
MEAN_MOTION    = 14.47989982
ECCENTRICITY   = .001716
INCLINATION    = 74.0378
RA_OF_ASC_NODE = 30.2456
ARG_OF_PERICENTER = 318.1031
MEAN_ANOMALY   = 41.8814

EPHEMERIS_TYPE = 0
CLASSIFICATION_TYPE = U
NORAD_CAT_ID   = 81667
ELEMENT_SET_NO = 999
REV_AT_EPOCH   = 45713
BSTAR          = .49432E-3
MEAN_MOTION_DOT = .1812E-4
MEAN_MOTION_DDOT = 0

CCSDS_OMM_VERS = 2.0
CREATION_DATE  = 
ORIGINATOR     = 

OBJECT_NAME    = UNKNOWN
OBJECT_ID      = 
CENTER_NAME    = EARTH
REF_FRAME      = TEME
TIME_SYSTEM    = UTC
MEAN_ELEMENT_THEORY = SGP/SGP4

EPOCH          = 2025-12-18T07:12:16.187904
MEAN_MOTION    = 14.09926597
ECCENTRICITY   = .0031554
INCLINATION    = 66.8231
RA_OF_ASC_NODE = 350.2700
ARG_OF_PERICENTER = 228.0115
MEAN_ANOMALY   = 148.5675

EPHEMERIS_TYPE = 0
CLASSIFICATION_TYPE = U
NORAD_CAT_ID   = 81674
ELEMENT_SET_NO = 999
REV_AT_EPOCH   = 61450
BSTAR          = .55481E-3
MEAN_MOTION_DOT = .903E-5
MEAN_MOTION_DDOT = 0

CCSDS_OMM_VERS = 2.0
CREATION_DATE  = 
ORIGINATOR     = 

OBJECT_NAME    = UNKNOWN
OBJECT_ID      = 
CENTER_NAME    = EARTH
REF_FRAME      = TEME
TIME_SYSTEM    = UTC
MEAN_ELEMENT_THEORY = SGP/SGP4

EPOCH          = 2025-12-17T19:51:55.781280
MEAN_MOTION    = 14.57421853
ECCENTRICITY   = .0022617
INCLINATION    = 81.2158
RA_OF_ASC_NODE = 290.0073
ARG_OF_PERICENTER = 285.5011
MEAN_ANOMALY   = 74.3688

EPHEMERIS_TYPE = 0
CLASSIFICATION_TYPE = U
NORAD_CAT_ID   = 81683
ELEMENT_SET_NO = 999
REV_AT_EPOCH   = 63660
BSTAR          = .53878E-3
MEAN_MOTION_DOT = .2466E-4
MEAN_MOTION_DDOT = 0

CCSDS_OMM_VERS = 2.0
CREATION_DATE  = 
ORIGINATOR     = 

OBJECT_NAME    = UNKNOWN
OBJECT_ID      = 
CENTER_NAME    = EARTH
REF_FRAME      = TEME
TIME_SYSTEM    = UTC
MEAN_ELEMENT_THEORY = SGP/SGP4

EPOCH          = 2025-12-18T09:58:37.147008
MEAN_MOTION    = 12.25913024
ECCENTRICITY   = .0369449
INCLINATION    = 101.0902
RA_OF_ASC_NODE = 53.2233
ARG_OF_PERICENTER = 74.3894
MEAN_ANOMALY   = 289.7614

EPHEMERIS_TYPE = 0
CLASSIFICATION_TYPE = U
NORAD_CAT_ID   = 81693
ELEMENT_SET_NO = 999
REV_AT_EPOCH   = 96846
BSTAR          = -.15072E-2
MEAN_MOTION_DOT = -.246E-5
MEAN_MOTION_DDOT = 0

